{
  "type": "FeatureCollection",
  "features": [
    {
      "type": "Feature",
      "properties": {
        "OBJECT_NAME": "ION SCV-012",
        "OBJECT_ID": "2024-149DK",
        "EPOCH": "2025-11-30T03:21:51.185664",
        "MEAN_MOTION": 14.94343769,
        "ECCENTRICITY": 0.0004156,
        "INCLINATION": 97.701,
        "RA_OF_ASC_NODE": 47.2059,
        "ARG_OF_PERICENTER": 45.3417,
        "MEAN_ANOMALY": 314.8142,
        "EPHEMERIS_TYPE": 0,
        "CLASSIFICATION_TYPE": "U",
        "NORAD_CAT_ID": 60573,
        "ELEMENT_SET_NO": 999,
        "REV_AT_EPOCH": 7018,
        "BSTAR": 0.00015462,
        "MEAN_MOTION_DOT": 1.606e-05,
        "MEAN_MOTION_DDOT": 0,
        "norad_id": 60573,
        "name": "ION SCV-012",
        "group": "active",
        "longitude_deg": NaN,
        "latitude_deg": NaN,
        "alt_km": NaN,
        "orbit_class": "HEO",
        "timestamp": "2025-11-30T09:33:02.560164+00:00"
      },
      "geometry": {
        "type": "Point",
        "coordinates": [
          NaN,
          NaN
        ]
      }
    },
    {
      "type": "Feature",
      "properties": {
        "OBJECT_NAME": "GNOMES-5",
        "OBJECT_ID": "2024-149DL",
        "EPOCH": "2025-11-29T17:44:16.651104",
        "MEAN_MOTION": 14.99104391,
        "ECCENTRICITY": 0.0002101,
        "INCLINATION": 97.703,
        "RA_OF_ASC_NODE": 48.9468,
        "ARG_OF_PERICENTER": 38.5396,
        "MEAN_ANOMALY": 321.5976,
        "EPHEMERIS_TYPE": 0,
        "CLASSIFICATION_TYPE": "U",
        "NORAD_CAT_ID": 60574,
        "ELEMENT_SET_NO": 999,
        "REV_AT_EPOCH": 7025,
        "BSTAR": 0.00038202,
        "MEAN_MOTION_DOT": 4.583e-05,
        "MEAN_MOTION_DDOT": 0,
        "norad_id": 60574,
        "name": "GNOMES-5",
        "group": "active",
        "longitude_deg": NaN,
        "latitude_deg": NaN,
        "alt_km": NaN,
        "orbit_class": "HEO",
        "timestamp": "2025-11-30T09:33:02.560172+00:00"
      },
      "geometry": {
        "type": "Point",
        "coordinates": [
          NaN,
          NaN
        ]
      }
    },
    {
      "type": "Feature",
      "properties": {
        "OBJECT_NAME": "HAWK-10C",
        "OBJECT_ID": "2024-149DM",
        "EPOCH": "2025-11-30T01:37:36.535008",
        "MEAN_MOTION": 14.95666816,
        "ECCENTRICITY": 0.0003525,
        "INCLINATION": 97.6952,
        "RA_OF_ASC_NODE": 47.3996,
        "ARG_OF_PERICENTER": 25.1285,
        "MEAN_ANOMALY": 335.0107,
        "EPHEMERIS_TYPE": 0,
        "CLASSIFICATION_TYPE": "U",
        "NORAD_CAT_ID": 60575,
        "ELEMENT_SET_NO": 999,
        "REV_AT_EPOCH": 7021,
        "BSTAR": 0.00020781,
        "MEAN_MOTION_DOT": 2.254e-05,
        "MEAN_MOTION_DDOT": 0,
        "norad_id": 60575,
        "name": "HAWK-10C",
        "group": "active",
        "longitude_deg": NaN,
        "latitude_deg": NaN,
        "alt_km": NaN,
        "orbit_class": "HEO",
        "timestamp": "2025-11-30T09:33:02.560178+00:00"
      },
      "geometry": {
        "type": "Point",
        "coordinates": [
          NaN,
          NaN
        ]
      }
    },
    {
      "type": "Feature",
      "properties": {
        "OBJECT_NAME": "LEMUR-2-AHMED-ASRAR",
        "OBJECT_ID": "2024-149DN",
        "EPOCH": "2025-11-29T17:31:54.271200",
        "MEAN_MOTION": 15.07382344,
        "ECCENTRICITY": 0.0001692,
        "INCLINATION": 97.7164,
        "RA_OF_ASC_NODE": 52.5214,
        "ARG_OF_PERICENTER": 350.4855,
        "MEAN_ANOMALY": 9.634,
        "EPHEMERIS_TYPE": 0,
        "CLASSIFICATION_TYPE": "U",
        "NORAD_CAT_ID": 60576,
        "ELEMENT_SET_NO": 999,
        "REV_AT_EPOCH": 7046,
        "BSTAR": 0.00076379,
        "MEAN_MOTION_DOT": 0.00011503,
        "MEAN_MOTION_DDOT": 0,
        "norad_id": 60576,
        "name": "LEMUR-2-AHMED-ASRAR",
        "group": "active",
        "longitude_deg": NaN,
        "latitude_deg": NaN,
        "alt_km": NaN,
        "orbit_class": "HEO",
        "timestamp": "2025-11-30T09:33:02.560187+00:00"
      },
      "geometry": {
        "type": "Point",
        "coordinates": [
          NaN,
          NaN
        ]
      }
    },
    {
      "type": "Feature",
      "properties": {
        "OBJECT_NAME": "LEMUR-2-LLOYD",
        "OBJECT_ID": "2024-149DP",
        "EPOCH": "2025-11-30T04:25:51.269088",
        "MEAN_MOTION": 15.04444471,
        "ECCENTRICITY": 0.000512,
        "INCLINATION": 97.6921,
        "RA_OF_ASC_NODE": 50.7209,
        "ARG_OF_PERICENTER": 105.5329,
        "MEAN_ANOMALY": 254.6462,
        "EPHEMERIS_TYPE": 0,
        "CLASSIFICATION_TYPE": "U",
        "NORAD_CAT_ID": 60577,
        "ELEMENT_SET_NO": 999,
        "REV_AT_EPOCH": 7042,
        "BSTAR": 0.0009306,
        "MEAN_MOTION_DOT": 0.00012968,
        "MEAN_MOTION_DDOT": 0,
        "norad_id": 60577,
        "name": "LEMUR-2-LLOYD",
        "group": "active",
        "longitude_deg": NaN,
        "latitude_deg": NaN,
        "alt_km": NaN,
        "orbit_class": "HEO",
        "timestamp": "2025-11-30T09:33:02.560195+00:00"
      },
      "geometry": {
        "type": "Point",
        "coordinates": [
          NaN,
          NaN
        ]
      }
    },
    {
      "type": "Feature",
      "properties": {
        "OBJECT_NAME": "LEMUR-2-SQUIRRELCOMM",
        "OBJECT_ID": "2024-149DQ",
        "EPOCH": "2025-11-30T03:53:47.827104",
        "MEAN_MOTION": 15.04041963,
        "ECCENTRICITY": 0.000596,
        "INCLINATION": 97.6909,
        "RA_OF_ASC_NODE": 50.9603,
        "ARG_OF_PERICENTER": 17.397,
        "MEAN_ANOMALY": 342.7459,
        "EPHEMERIS_TYPE": 0,
        "CLASSIFICATION_TYPE": "U",
        "NORAD_CAT_ID": 60578,
        "ELEMENT_SET_NO": 999,
        "REV_AT_EPOCH": 7045,
        "BSTAR": 0.00065815,
        "MEAN_MOTION_DOT": 9.051e-05,
        "MEAN_MOTION_DDOT": 0,
        "norad_id": 60578,
        "name": "LEMUR-2-SQUIRRELCOMM",
        "group": "active",
        "longitude_deg": NaN,
        "latitude_deg": NaN,
        "alt_km": NaN,
        "orbit_class": "HEO",
        "timestamp": "2025-11-30T09:33:02.560200+00:00"
      },
      "geometry": {
        "type": "Point",
        "coordinates": [
          NaN,
          NaN
        ]
      }
    },
    {
      "type": "Feature",
      "properties": {
        "OBJECT_NAME": "LEMUR-2-SIERRINI",
        "OBJECT_ID": "2024-149DR",
        "EPOCH": "2025-11-30T03:48:51.304032",
        "MEAN_MOTION": 15.05687722,
        "ECCENTRICITY": 0.0006601,
        "INCLINATION": 97.703,
        "RA_OF_ASC_NODE": 51.4684,
        "ARG_OF_PERICENTER": 130.6684,
        "MEAN_ANOMALY": 229.5117,
        "EPHEMERIS_TYPE": 0,
        "CLASSIFICATION_TYPE": "U",
        "NORAD_CAT_ID": 60579,
        "ELEMENT_SET_NO": 999,
        "REV_AT_EPOCH": 7045,
        "BSTAR": 0.001024,
        "MEAN_MOTION_DOT": 0.00014765,
        "MEAN_MOTION_DDOT": 0,
        "norad_id": 60579,
        "name": "LEMUR-2-SIERRINI",
        "group": "active",
        "longitude_deg": NaN,
        "latitude_deg": NaN,
        "alt_km": NaN,
        "orbit_class": "HEO",
        "timestamp": "2025-11-30T09:33:02.560208+00:00"
      },
      "geometry": {
        "type": "Point",
        "coordinates": [
          NaN,
          NaN
        ]
      }
    },
    {
      "type": "Feature",
      "properties": {
        "OBJECT_NAME": "SEDNA-1",
        "OBJECT_ID": "2024-149DS",
        "EPOCH": "2025-11-29T22:42:17.614080",
        "MEAN_MOTION": 15.03683954,
        "ECCENTRICITY": 0.0007941,
        "INCLINATION": 97.6838,
        "RA_OF_ASC_NODE": 50.5877,
        "ARG_OF_PERICENTER": 310.7287,
        "MEAN_ANOMALY": 49.3248,
        "EPHEMERIS_TYPE": 0,
        "CLASSIFICATION_TYPE": "U",
        "NORAD_CAT_ID": 60580,
        "ELEMENT_SET_NO": 999,
        "REV_AT_EPOCH": 7041,
        "BSTAR": 0.00064979,
        "MEAN_MOTION_DOT": 8.853e-05,
        "MEAN_MOTION_DDOT": 0,
        "norad_id": 60580,
        "name": "SEDNA-1",
        "group": "active",
        "longitude_deg": NaN,
        "latitude_deg": NaN,
        "alt_km": NaN,
        "orbit_class": "HEO",
        "timestamp": "2025-11-30T09:33:02.560214+00:00"
      },
      "geometry": {
        "type": "Point",
        "coordinates": [
          NaN,
          NaN
        ]
      }
    }
  ]
}