ION SCV-012             
1 60573U 24149DK  25334.14017576  .00001606  00000+0  15462-3 0  9992
2 60573  97.7010  47.2059 0004156  45.3417 314.8142 14.94343769 70183
GNOMES-5                
1 60574U 24149DL  25333.73908161  .00004583  00000+0  38202-3 0  9990
2 60574  97.7030  48.9468 0002101  38.5396 321.5976 14.99104391 70255
HAWK-10C                
1 60575U 24149DM  25334.06778397  .00002254  00000+0  20781-3 0  9990
2 60575  97.6952  47.3996 0003525  25.1285 335.0107 14.95666816 70210
LEMUR-2-AHMED-ASRAR     
1 60576U 24149DN  25333.73048925  .00011503  00000+0  76379-3 0  9992
2 60576  97.7164  52.5214 0001692 350.4855   9.6340 15.07382344 70463
LEMUR-2-LLOYD           
1 60577U 24149DP  25334.18462117  .00012968  00000+0  93060-3 0  9998
2 60577  97.6921  50.7209 0005120 105.5329 254.6462 15.04444471 70423
LEMUR-2-SQUIRRELCOMM    
1 60578U 24149DQ  25334.16235911  .00009051  00000+0  65815-3 0  9993
2 60578  97.6909  50.9603 0005960  17.3970 342.7459 15.04041963 70451
LEMUR-2-SIERRINI        
1 60579U 24149DR  25334.15892713  .00014765  00000+0  10240-2 0  9991
2 60579  97.7030  51.4684 0006601 130.6684 229.5117 15.05687722 70450
SEDNA-1                 
1 60580U 24149DS  25333.94603720  .00008853  00000+0  64979-3 0  9997
2 60580  97.6838  50.5877 0007941 310.7287  49.3248 15.03683954 70419
